start=new Date('2023-06-09T00:00:00.000Z').valueOf();
sats=[{"ARG_OF_PERICENTER":"95.2414","RA_OF_ASC_NODE":"296.3322","NORAD_CAT_ID":"52987","MEAN_ELEMENT_THEORY":"SGP4","INCLINATION":"53.2178","OBJECT_NAME":"STARLINK-4259","MEAN_MOTION_DOT":"0.00001812","TLE_LINE1":"1 52987U 22076B   23159.55795213  .00001812  00000-0  13192-3 0  9996","LAUNCH_DATE":"2022-07-07","DECAY_DATE":null,"ECCENTRICITY":"0.00011030","OBJECT_TYPE":"PAYLOAD","EPHEMERIS_TYPE":"0","CENTER_NAME":"EARTH","SEMIMAJOR_AXIS":"6917.906","GP_ID":"233505359","BSTAR":"0.00013192000000","SITE":"AFETR","EPOCH":"2023-06-08T13:23:27.064032","FILE":"3928201","MEAN_MOTION_DDOT":"0.0000000000000","REF_FRAME":"TEME","RCS_SIZE":"LARGE","MEAN_ANOMALY":"264.8704","MEAN_MOTION":"15.08831712","TLE_LINE2":"2 52987  53.2178 296.3322 0001103  95.2414 264.8704 15.08831712 50963","REV_AT_EPOCH":"5096","PERIOD":"95.438","TIME_SYSTEM":"UTC","CLASSIFICATION_TYPE":"U","APOAPSIS":"540.534","PERIAPSIS":"539.008","COUNTRY_CODE":"US","OBJECT_ID":"2022-076B","ELEMENT_SET_NO":"999"},{"OBJECT_NAME":"STARLINK-4291","INCLINATION":"53.2160","TLE_LINE1":"1 52988U 22076C   23159.64718022  .00001993  00000-0  14325-3 0  9999","LAUNCH_DATE":"2022-07-07","MEAN_MOTION_DOT":"0.00001993","ECCENTRICITY":"0.00009940","DECAY_DATE":null,"OBJECT_TYPE":"PAYLOAD","ARG_OF_PERICENTER":"78.6973","NORAD_CAT_ID":"52988","RA_OF_ASC_NODE":"285.9301","MEAN_ELEMENT_THEORY":"SGP4","MEAN_MOTION_DDOT":"0.0000000000000","FILE":"3928201","REF_FRAME":"TEME","MEAN_ANOMALY":"281.4131","MEAN_MOTION":"15.08839149","RCS_SIZE":"LARGE","TIME_SYSTEM":"UTC","PERIOD":"95.438","TLE_LINE2":"2 52988  53.2160 285.9301 0000994  78.6973 281.4131 15.08839149 51117","REV_AT_EPOCH":"5111","COUNTRY_CODE":"US","ELEMENT_SET_NO":"999","OBJECT_ID":"2022-076C","CLASSIFICATION_TYPE":"U","PERIAPSIS":"539.060","APOAPSIS":"540.436","CENTER_NAME":"EARTH","EPHEMERIS_TYPE":"0","SEMIMAJOR_AXIS":"6917.883","GP_ID":"233504109","SITE":"AFETR","EPOCH":"2023-06-08T15:31:56.371008","BSTAR":"0.00014325000000"},{"GP_ID":"233504359","EPOCH":"2023-06-08T13:18:08.490816","SITE":"AFETR","BSTAR":"0.00008659900000","CENTER_NAME":"EARTH","EPHEMERIS_TYPE":"0","SEMIMAJOR_AXIS":"6917.901","TIME_SYSTEM":"UTC","TLE_LINE2":"2 52989  53.2174 296.3481 0001064  88.2742 271.8372 15.08833269 50967","PERIOD":"95.438","REV_AT_EPOCH":"5096","ELEMENT_SET_NO":"999","OBJECT_ID":"2022-076D","COUNTRY_CODE":"US","PERIAPSIS":"539.030","APOAPSIS":"540.502","CLASSIFICATION_TYPE":"U","REF_FRAME":"TEME","FILE":"3928201","MEAN_MOTION_DDOT":"0.0000000000000","MEAN_MOTION":"15.08833269","MEAN_ANOMALY":"271.8372","RCS_SIZE":"LARGE","NORAD_CAT_ID":"52989","RA_OF_ASC_NODE":"296.3481","MEAN_ELEMENT_THEORY":"SGP4","ARG_OF_PERICENTER":"88.2742","DECAY_DATE":null,"ECCENTRICITY":"0.00010640","OBJECT_TYPE":"PAYLOAD","OBJECT_NAME":"STARLINK-4293","INCLINATION":"53.2174","LAUNCH_DATE":"2022-07-07","TLE_LINE1":"1 52989U 22076D   23159.55426494  .00001090  00000-0  86599-4 0  9990","MEAN_MOTION_DOT":"0.00001090"},{"EPHEMERIS_TYPE":"0","CENTER_NAME":"EARTH","SEMIMAJOR_AXIS":"6917.903","GP_ID":"233504610","BSTAR":"0.00004286900000","EPOCH":"2023-06-08T13:12:50.461920","SITE":"AFETR","REF_FRAME":"TEME","MEAN_MOTION_DDOT":"0.0000000000000","FILE":"3928201","RCS_SIZE":"LARGE","MEAN_MOTION":"15.08832523","MEAN_ANOMALY":"272.6614","TLE_LINE2":"2 52990  53.2171 296.3646 0001099  87.4504 272.6614 15.08832523 50964","REV_AT_EPOCH":"5096","PERIOD":"95.438","TIME_SYSTEM":"UTC","APOAPSIS":"540.529","PERIAPSIS":"539.008","CLASSIFICATION_TYPE":"U","ELEMENT_SET_NO":"999","OBJECT_ID":"2022-076E","COUNTRY_CODE":"US","ARG_OF_PERICENTER":"87.4504","RA_OF_ASC_NODE":"296.3646","NORAD_CAT_ID":"52990","MEAN_ELEMENT_THEORY":"SGP4","INCLINATION":"53.2171","OBJECT_NAME":"STARLINK-4286","MEAN_MOTION_DOT":"0.00000394","TLE_LINE1":"1 52990U 22076E   23159.55058405  .00000394  00000-0  42869-4 0  9993","LAUNCH_DATE":"2022-07-07","ECCENTRICITY":"0.00010990","DECAY_DATE":null,"OBJECT_TYPE":"PAYLOAD"},{"TIME_SYSTEM":"UTC","TLE_LINE2":"2 52991  53.2172 296.3796 0001127  91.1074 269.0047 15.08837512 51434","PERIOD":"95.438","REV_AT_EPOCH":"5143","ELEMENT_SET_NO":"999","OBJECT_ID":"2022-076F","COUNTRY_CODE":"US","PERIAPSIS":"538.973","APOAPSIS":"540.533","CLASSIFICATION_TYPE":"U","REF_FRAME":"TEME","FILE":"3928163","MEAN_MOTION_DDOT":"0.0000000000000","MEAN_MOTION":"15.08837512","MEAN_ANOMALY":"269.0047","RCS_SIZE":"LARGE","GP_ID":"233480303","EPOCH":"2023-06-08T13:07:32.214432","SITE":"AFETR","BSTAR":"0.00005357800000","CENTER_NAME":"EARTH","EPHEMERIS_TYPE":"0","SEMIMAJOR_AXIS":"6917.888","DECAY_DATE":null,"ECCENTRICITY":"0.00011270","OBJECT_TYPE":"PAYLOAD","OBJECT_NAME":"STARLINK-4285","INCLINATION":"53.2172","TLE_LINE1":"1 52991U 22076F   23159.54690063  .00000565  00000-0  53578-4 0  9994","LAUNCH_DATE":"2022-07-07","MEAN_MOTION_DOT":"0.00000565","NORAD_CAT_ID":"52991","RA_OF_ASC_NODE":"296.3796","MEAN_ELEMENT_THEORY":"SGP4","ARG_OF_PERICENTER":"91.1074"},{"MEAN_MOTION_DDOT":"0.0000000000000","FILE":"3928007","REF_FRAME":"TEME","RCS_SIZE":"LARGE","MEAN_ANOMALY":"270.5078","MEAN_MOTION":"15.08834219","PERIOD":"95.438","TLE_LINE2":"2 52992  53.2175 296.4031 0000886  89.6015 270.5078 15.08834219 50968","REV_AT_EPOCH":"5096","TIME_SYSTEM":"UTC","CLASSIFICATION_TYPE":"U","APOAPSIS":"540.376","PERIAPSIS":"539.150","COUNTRY_CODE":"US","ELEMENT_SET_NO":"999","OBJECT_ID":"2022-076G","EPHEMERIS_TYPE":"0","CENTER_NAME":"EARTH","SEMIMAJOR_AXIS":"6917.898","GP_ID":"233473953","BSTAR":"0.00006338400000","SITE":"AFETR","EPOCH":"2023-06-08T13:03:37.209888","INCLINATION":"53.2175","OBJECT_NAME":"STARLINK-4269","MEAN_MOTION_DOT":"0.00000721","LAUNCH_DATE":"2022-07-07","TLE_LINE1":"1 52992U 22076G   23159.54418067  .00000721  00000-0  63384-4 0  9997","ECCENTRICITY":"0.00008860","DECAY_DATE":null,"OBJECT_TYPE":"PAYLOAD","ARG_OF_PERICENTER":"89.6015","RA_OF_ASC_NODE":"296.4031","NORAD_CAT_ID":"52992","MEAN_ELEMENT_THEORY":"SGP4"},{"OBJECT_TYPE":"PAYLOAD","ECCENTRICITY":"0.00010780","DECAY_DATE":null,"LAUNCH_DATE":"2022-07-07","TLE_LINE1":"1 52993U 22076H   23159.51102200  .00002162  00000-0  15388-3 0  9995","MEAN_MOTION_DOT":"0.00002162","OBJECT_NAME":"STARLINK-4264","INCLINATION":"53.2166","MEAN_ELEMENT_THEORY":"SGP4","NORAD_CAT_ID":"52993","RA_OF_ASC_NODE":"286.5411","ARG_OF_PERICENTER":"86.2400","COUNTRY_CODE":"US","ELEMENT_SET_NO":"999","OBJECT_ID":"2022-076H","CLASSIFICATION_TYPE":"U","APOAPSIS":"540.517","PERIAPSIS":"539.025","TIME_SYSTEM":"UTC","REV_AT_EPOCH":"5156","TLE_LINE2":"2 52993  53.2166 286.5411 0001078  86.2400 273.8715 15.08831639 51560","PERIOD":"95.438","MEAN_ANOMALY":"273.8715","MEAN_MOTION":"15.08831639","RCS_SIZE":"LARGE","FILE":"3928163","MEAN_MOTION_DDOT":"0.0000000000000","REF_FRAME":"TEME","SITE":"AFETR","EPOCH":"2023-06-08T12:15:52.300800","BSTAR":"0.00015388000000","GP_ID":"233480731","SEMIMAJOR_AXIS":"6917.906","CENTER_NAME":"EARTH","EPHEMERIS_TYPE":"0"},{"DECAY_DATE":null,"ECCENTRICITY":"0.00011770","OBJECT_TYPE":"PAYLOAD","INCLINATION":"53.2155","OBJECT_NAME":"STARLINK-4256","MEAN_MOTION_DOT":"0.00000855","LAUNCH_DATE":"2022-07-07","TLE_LINE1":"1 52994U 22076J   23159.50733761  .00000855  00000-0  71769-4 0  9990","RA_OF_ASC_NODE":"286.5562","NORAD_CAT_ID":"52994","MEAN_ELEMENT_THEORY":"SGP4","ARG_OF_PERICENTER":"100.0612","TLE_LINE2":"2 52994  53.2155 286.5562 0001177 100.0612 260.0513 15.08842295 51560","REV_AT_EPOCH":"5156","PERIOD":"95.437","TIME_SYSTEM":"UTC","CLASSIFICATION_TYPE":"U","PERIAPSIS":"538.924","APOAPSIS":"540.553","COUNTRY_CODE":"US","OBJECT_ID":"2022-076J","ELEMENT_SET_NO":"999","MEAN_MOTION_DDOT":"0.0000000000000","FILE":"3928163","REF_FRAME":"TEME","RCS_SIZE":"LARGE","MEAN_ANOMALY":"260.0513","MEAN_MOTION":"15.08842295","GP_ID":"233480737","BSTAR":"0.00007176900000","SITE":"AFETR","EPOCH":"2023-06-08T12:10:33.969504","EPHEMERIS_TYPE":"0","CENTER_NAME":"EARTH","SEMIMAJOR_AXIS":"6917.873"},{"DECAY_DATE":null,"ECCENTRICITY":"0.00010420","OBJECT_TYPE":"PAYLOAD","OBJECT_NAME":"STARLINK-4296","INCLINATION":"53.2159","TLE_LINE1":"1 52995U 22076K   23159.63245902  .00001565  00000-0  11639-3 0  9998","LAUNCH_DATE":"2022-07-07","MEAN_MOTION_DOT":"0.00001565","NORAD_CAT_ID":"52995","RA_OF_ASC_NODE":"286.0002","MEAN_ELEMENT_THEORY":"SGP4","ARG_OF_PERICENTER":"82.9555","TIME_SYSTEM":"UTC","TLE_LINE2":"2 52995  53.2159 286.0002 0001042  82.9555 277.1555 15.08841579 51114","REV_AT_EPOCH":"5111","PERIOD":"95.437","OBJECT_ID":"2022-076K","ELEMENT_SET_NO":"999","COUNTRY_CODE":"US","PERIAPSIS":"539.020","APOAPSIS":"540.461","CLASSIFICATION_TYPE":"U","REF_FRAME":"TEME","MEAN_MOTION_DDOT":"0.0000000000000","FILE":"3928201","MEAN_MOTION":"15.08841579","MEAN_ANOMALY":"277.1555","RCS_SIZE":"LARGE","GP_ID":"233505360","EPOCH":"2023-06-08T15:10:44.459328","SITE":"AFETR","BSTAR":"0.00011639000000","CENTER_NAME":"EARTH","EPHEMERIS_TYPE":"0","SEMIMAJOR_AXIS":"6917.876"},{"DECAY_DATE":null,"ECCENTRICITY":"0.00011200","OBJECT_TYPE":"PAYLOAD","INCLINATION":"53.2176","OBJECT_NAME":"STARLINK-4295","MEAN_MOTION_DOT":"0.00001097","TLE_LINE1":"1 52996U 22076L   23159.63613939  .00001097  00000-0  87013-4 0  9998","LAUNCH_DATE":"2022-07-07","RA_OF_ASC_NODE":"285.9843","NORAD_CAT_ID":"52996","MEAN_ELEMENT_THEORY":"SGP4","ARG_OF_PERICENTER":"87.2539","REV_AT_EPOCH":"5111","TLE_LINE2":"2 52996  53.2176 285.9843 0001120  87.2539 272.8581 15.08838065 51119","PERIOD":"95.438","TIME_SYSTEM":"UTC","CLASSIFICATION_TYPE":"U","PERIAPSIS":"538.977","APOAPSIS":"540.526","COUNTRY_CODE":"US","OBJECT_ID":"2022-076L","ELEMENT_SET_NO":"999","MEAN_MOTION_DDOT":"0.0000000000000","FILE":"3928201","REF_FRAME":"TEME","RCS_SIZE":"LARGE","MEAN_ANOMALY":"272.8581","MEAN_MOTION":"15.08838065","GP_ID":"233504110","BSTAR":"0.00008701300000","SITE":"AFETR","EPOCH":"2023-06-08T15:16:02.443296","EPHEMERIS_TYPE":"0","CENTER_NAME":"EARTH","SEMIMAJOR_AXIS":"6917.886"}];
